{
  "type": "FeatureCollection",
  "features": [
    {
      "type": "Feature",
      "properties": {
        "norad_id": 40362,
        "name": "YAOGAN-26",
        "group": "resource",
        "lat": 4.977924129934143,
        "lon": 165.98828038590761,
        "alt_km": 454.4169908023114,
        "timestamp": "2025-12-10T14:53:36.779780+00:00",
        "meta_object_name": "YAOGAN-26",
        "meta_object_id": "2014-088A",
        "meta_epoch": "2025-12-10T06:20:06.529344",
        "meta_mean_motion": 15.39167784,
        "meta_eccentricity": 0.00065831,
        "meta_inclination": 97.0651,
        "meta_ra_of_asc_node": 345.0254,
        "meta_arg_of_pericenter": 35.7065,
        "meta_mean_anomaly": 324.4621,
        "meta_ephemeris_type": 0,
        "meta_classification_type": "U",
        "meta_norad_cat_id": 40362,
        "meta_element_set_no": 999,
        "meta_rev_at_epoch": 60856,
        "meta_bstar": 0.00088237296,
        "meta_mean_motion_dot": 0.00034312,
        "meta_mean_motion_ddot": 0,
        "tle_line1": "1 40362U 14088A   25344.26396446  .00034312  00000+0  88237-3 0  9997",
        "tle_line2": "2 40362  97.0651 345.0254 0006583  35.7065 324.4621 15.39167784608564"
      },
      "geometry": {
        "type": "Point",
        "coordinates": [
          165.98828038590761,
          4.977924129934143
        ]
      }
    },
    {
      "type": "Feature",
      "properties": {
        "norad_id": 40376,
        "name": "SMAP",
        "group": "resource",
        "lat": -75.89557102063903,
        "lon": 24.045591599208485,
        "alt_km": 690.5537473282775,
        "timestamp": "2025-12-10T14:53:36.779790+00:00",
        "meta_object_name": "SMAP",
        "meta_object_id": "2015-003A",
        "meta_epoch": "2025-12-10T07:02:46.605408",
        "meta_mean_motion": 14.63340156,
        "meta_eccentricity": 0.00012032,
        "meta_inclination": 98.1291,
        "meta_ra_of_asc_node": 349.0527,
        "meta_arg_of_pericenter": 88.6,
        "meta_mean_anomaly": 271.534,
        "meta_ephemeris_type": 0,
        "meta_classification_type": "U",
        "meta_norad_cat_id": 40376,
        "meta_element_set_no": 999,
        "meta_rev_at_epoch": 57999,
        "meta_bstar": 0.00019042818,
        "meta_mean_motion_dot": 9.36e-06,
        "meta_mean_motion_ddot": 0,
        "tle_line1": "1 40376U 15003A   25344.29359497  .00000936  00000+0  19043-3 0  9992",
        "tle_line2": "2 40376  98.1291 349.0527 0001203  88.6000 271.5340 14.63340156579994"
      },
      "geometry": {
        "type": "Point",
        "coordinates": [
          24.045591599208485,
          -75.89557102063903
        ]
      }
    },
    {
      "type": "Feature",
      "properties": {
        "norad_id": 40536,
        "name": "KOMPSAT-3A",
        "group": "resource",
        "lat": 77.2155846912953,
        "lon": -77.63799486115686,
        "alt_km": 425.62113821459843,
        "timestamp": "2025-12-10T14:53:36.779800+00:00",
        "meta_object_name": "KOMPSAT-3A",
        "meta_object_id": "2015-014A",
        "meta_epoch": "2025-12-10T05:12:56.689056",
        "meta_mean_motion": 15.4379758,
        "meta_eccentricity": 0.00046438,
        "meta_inclination": 97.6792,
        "meta_ra_of_asc_node": 318.4244,
        "meta_arg_of_pericenter": 132.5622,
        "meta_mean_anomaly": 227.6018,
        "meta_ephemeris_type": 0,
        "meta_classification_type": "U",
        "meta_norad_cat_id": 40536,
        "meta_element_set_no": 999,
        "meta_rev_at_epoch": 59256,
        "meta_bstar": 0.00060968888,
        "meta_mean_motion_dot": 0.00027578,
        "meta_mean_motion_ddot": 0,
        "tle_line1": "1 40536U 15014A   25344.21732279  .00027578  00000+0  60969-3 0  9991",
        "tle_line2": "2 40536  97.6792 318.4244 0004643 132.5622 227.6018 15.43797580592566"
      },
      "geometry": {
        "type": "Point",
        "coordinates": [
          -77.63799486115686,
          77.2155846912953
        ]
      }
    },
    {
      "type": "Feature",
      "properties": {
        "norad_id": 40697,
        "name": "SENTINEL-2A",
        "group": "resource",
        "lat": 37.10939739376402,
        "lon": 50.6329882208505,
        "alt_km": 785.8031525419146,
        "timestamp": "2025-12-10T14:53:36.779809+00:00",
        "meta_object_name": "SENTINEL-2A",
        "meta_object_id": "2015-028A",
        "meta_epoch": "2025-12-10T06:19:36.653952",
        "meta_mean_motion": 14.30825786,
        "meta_eccentricity": 0.00010506,
        "meta_inclination": 98.5691,
        "meta_ra_of_asc_node": 56.8314,
        "meta_arg_of_pericenter": 89.9328,
        "meta_mean_anomaly": 270.1975,
        "meta_ephemeris_type": 0,
        "meta_classification_type": "U",
        "meta_norad_cat_id": 40697,
        "meta_element_set_no": 999,
        "meta_rev_at_epoch": 54671,
        "meta_bstar": 0.00010374456,
        "meta_mean_motion_dot": 2.28e-06,
        "meta_mean_motion_ddot": 0,
        "tle_line1": "1 40697U 15028A   25344.26361868  .00000228  00000+0  10374-3 0  9999",
        "tle_line2": "2 40697  98.5691  56.8314 0001050  89.9328 270.1975 14.30825786546716"
      },
      "geometry": {
        "type": "Point",
        "coordinates": [
          50.6329882208505,
          37.10939739376402
        ]
      }
    },
    {
      "type": "Feature",
      "properties": {
        "norad_id": 40701,
        "name": "GAOFEN-8",
        "group": "resource",
        "lat": -15.744291204974942,
        "lon": 164.84152860065663,
        "alt_km": 463.07375339280406,
        "timestamp": "2025-12-10T14:53:36.779818+00:00",
        "meta_object_name": "GAOFEN-8",
        "meta_object_id": "2015-030A",
        "meta_epoch": "2025-12-10T07:09:26.570880",
        "meta_mean_motion": 15.38416836,
        "meta_eccentricity": 0.00115221,
        "meta_inclination": 97.6913,
        "meta_ra_of_asc_node": 162.3201,
        "meta_arg_of_pericenter": 146.2422,
        "meta_mean_anomaly": 213.9559,
        "meta_ephemeris_type": 0,
        "meta_classification_type": "U",
        "meta_norad_cat_id": 40701,
        "meta_element_set_no": 999,
        "meta_rev_at_epoch": 58233,
        "meta_bstar": 0.0007106119,
        "meta_mean_motion_dot": 0.00026958,
        "meta_mean_motion_ddot": 0,
        "tle_line1": "1 40701U 15030A   25344.29822420  .00026958  00000+0  71061-3 0  9995",
        "tle_line2": "2 40701  97.6913 162.3201 0011522 146.2422 213.9559 15.38416836582336"
      },
      "geometry": {
        "type": "Point",
        "coordinates": [
          164.84152860065663,
          -15.744291204974942
        ]
      }
    },
    {
      "type": "Feature",
      "properties": {
        "norad_id": 40718,
        "name": "CARBONITE 1 (CBNT-1)",
        "group": "resource",
        "lat": -19.433117065516154,
        "lon": 168.47264026819488,
        "alt_km": 634.698730100903,
        "timestamp": "2025-12-10T14:53:36.779827+00:00",
        "meta_object_name": "CARBONITE 1 (CBNT-1)",
        "meta_object_id": "2015-032D",
        "meta_epoch": "2025-12-10T06:53:01.831200",
        "meta_mean_motion": 14.82722939,
        "meta_eccentricity": 0.00141907,
        "meta_inclination": 97.6407,
        "meta_ra_of_asc_node": 165.4391,
        "meta_arg_of_pericenter": 189.371,
        "meta_mean_anomaly": 170.7242,
        "meta_ephemeris_type": 0,
        "meta_classification_type": "U",
        "meta_norad_cat_id": 40718,
        "meta_element_set_no": 999,
        "meta_rev_at_epoch": 56134,
        "meta_bstar": 0.00025395345,
        "meta_mean_motion_dot": 2.003e-05,
        "meta_mean_motion_ddot": 0,
        "tle_line1": "1 40718U 15032D   25344.28682675  .00002003  00000+0  25395-3 0  9994",
        "tle_line2": "2 40718  97.6407 165.4391 0014190 189.3710 170.7242 14.82722939561347"
      },
      "geometry": {
        "type": "Point",
        "coordinates": [
          168.47264026819488,
          -19.433117065516154
        ]
      }
    },
    {
      "type": "Feature",
      "properties": {
        "norad_id": 40878,
        "name": "YAOGAN-27",
        "group": "resource",
        "lat": -47.23576223741348,
        "lon": 143.22379282379484,
        "alt_km": 1203.9212891129137,
        "timestamp": "2025-12-10T14:53:36.779836+00:00",
        "meta_object_name": "YAOGAN-27",
        "meta_object_id": "2015-040A",
        "meta_epoch": "2025-12-10T06:26:20.442624",
        "meta_mean_motion": 13.16060299,
        "meta_eccentricity": 0.00076515,
        "meta_inclination": 100.1009,
        "meta_ra_of_asc_node": 333.9996,
        "meta_arg_of_pericenter": 293.031,
        "meta_mean_anomaly": 66.9996,
        "meta_ephemeris_type": 0,
        "meta_classification_type": "U",
        "meta_norad_cat_id": 40878,
        "meta_element_set_no": 999,
        "meta_rev_at_epoch": 49281,
        "meta_bstar": 0.00086397979,
        "meta_mean_motion_dot": 2.86e-06,
        "meta_mean_motion_ddot": 0,
        "tle_line1": "1 40878U 15040A   25344.26829216  .00000286  00000+0  86398-3 0  9993",
        "tle_line2": "2 40878 100.1009 333.9996 0007651 293.0310  66.9996 13.16060299492815"
      },
      "geometry": {
        "type": "Point",
        "coordinates": [
          143.22379282379484,
          -47.23576223741348
        ]
      }
    }
  ]
}